CCSDS_OMM_VERS = 2.0
CREATION_DATE  = 
ORIGINATOR     = 

OBJECT_NAME    = AQUA
OBJECT_ID      = 2002-022A
CENTER_NAME    = EARTH
REF_FRAME      = TEME
TIME_SYSTEM    = UTC
MEAN_ELEMENT_THEORY = SGP/SGP4

EPOCH          = 2026-04-02T07:18:51.169824
MEAN_MOTION    = 14.62033293
ECCENTRICITY   = .00013075
INCLINATION    = 98.4215
RA_OF_ASC_NODE = 60.1071
ARG_OF_PERICENTER = 116.3371
MEAN_ANOMALY   = 349.5399

EPHEMERIS_TYPE = 0
CLASSIFICATION_TYPE = U
NORAD_CAT_ID   = 27424
ELEMENT_SET_NO = 999
REV_AT_EPOCH   = 27218
BSTAR          = .30630945E-3
MEAN_MOTION_DOT = .1488E-4
MEAN_MOTION_DDOT = 0

CCSDS_OMM_VERS = 2.0
CREATION_DATE  = 
ORIGINATOR     = 

OBJECT_NAME    = CZ-4B R/B
OBJECT_ID      = 2002-024C
CENTER_NAME    = EARTH
REF_FRAME      = TEME
TIME_SYSTEM    = UTC
MEAN_ELEMENT_THEORY = SGP/SGP4

EPOCH          = 2026-04-02T03:07:39.165024
MEAN_MOTION    = 14.14551841
ECCENTRICITY   = .00493433
INCLINATION    = 98.8786
RA_OF_ASC_NODE = 145.4135
ARG_OF_PERICENTER = 317.3188
MEAN_ANOMALY   = 96.6752

EPHEMERIS_TYPE = 0
CLASSIFICATION_TYPE = U
NORAD_CAT_ID   = 27432
ELEMENT_SET_NO = 999
REV_AT_EPOCH   = 23255
BSTAR          = .54022255E-4
MEAN_MOTION_DOT = .6E-6
MEAN_MOTION_DDOT = 0

CCSDS_OMM_VERS = 2.0
CREATION_DATE  = 
ORIGINATOR     = 

OBJECT_NAME    = MIDORI II (ADEOS-II)
OBJECT_ID      = 2002-056A
CENTER_NAME    = EARTH
REF_FRAME      = TEME
TIME_SYSTEM    = UTC
MEAN_ELEMENT_THEORY = SGP/SGP4

EPOCH          = 2026-04-02T07:48:13.326336
MEAN_MOTION    = 14.29303846
ECCENTRICITY   = .00005022
INCLINATION    = 98.7810
RA_OF_ASC_NODE = 50.9722
ARG_OF_PERICENTER = 21.3905
MEAN_ANOMALY   = 338.7297

EPHEMERIS_TYPE = 0
CLASSIFICATION_TYPE = U
NORAD_CAT_ID   = 27597
ELEMENT_SET_NO = 999
REV_AT_EPOCH   = 21367
BSTAR          = .19945043E-3
MEAN_MOTION_DOT = .462E-5
MEAN_MOTION_DDOT = 0

CCSDS_OMM_VERS = 2.0
CREATION_DATE  = 
ORIGINATOR     = 

OBJECT_NAME    = H-2A R/B
OBJECT_ID      = 2002-056E
CENTER_NAME    = EARTH
REF_FRAME      = TEME
TIME_SYSTEM    = UTC
MEAN_ELEMENT_THEORY = SGP/SGP4

EPOCH          = 2026-04-02T03:30:21.685248
MEAN_MOTION    = 14.33776953
ECCENTRICITY   = .00714315
INCLINATION    = 98.3245
RA_OF_ASC_NODE = 51.6245
ARG_OF_PERICENTER = 91.6485
MEAN_ANOMALY   = 280.3323

EPHEMERIS_TYPE = 0
CLASSIFICATION_TYPE = U
NORAD_CAT_ID   = 27601
ELEMENT_SET_NO = 999
REV_AT_EPOCH   = 21747
BSTAR          = .14167352E-3
MEAN_MOTION_DOT = .364E-5
MEAN_MOTION_DDOT = 0

CCSDS_OMM_VERS = 2.0
CREATION_DATE  = 
ORIGINATOR     = 

OBJECT_NAME    = CZ-4B R/B
OBJECT_ID      = 2003-049C
CENTER_NAME    = EARTH
REF_FRAME      = TEME
TIME_SYSTEM    = UTC
MEAN_ELEMENT_THEORY = SGP/SGP4

EPOCH          = 2026-04-01T23:17:54.053664
MEAN_MOTION    = 14.55041279
ECCENTRICITY   = .0048523
INCLINATION    = 98.6895
RA_OF_ASC_NODE = 87.7926
ARG_OF_PERICENTER = 159.3872
MEAN_ANOMALY   = 200.9296

EPHEMERIS_TYPE = 0
CLASSIFICATION_TYPE = U
NORAD_CAT_ID   = 28059
ELEMENT_SET_NO = 999
REV_AT_EPOCH   = 18998
BSTAR          = .1097E-3
MEAN_MOTION_DOT = .429E-5
MEAN_MOTION_DDOT = 0

CCSDS_OMM_VERS = 2.0
CREATION_DATE  = 
ORIGINATOR     = 

OBJECT_NAME    = CZ-2C R/B
OBJECT_ID      = 2004-012C
CENTER_NAME    = EARTH
REF_FRAME      = TEME
TIME_SYSTEM    = UTC
MEAN_ELEMENT_THEORY = SGP/SGP4

EPOCH          = 2026-04-02T04:31:57.745920
MEAN_MOTION    = 15.67476463
ECCENTRICITY   = .00135947
INCLINATION    = 97.7175
RA_OF_ASC_NODE = 159.7530
ARG_OF_PERICENTER = 217.1187
MEAN_ANOMALY   = 142.9134

EPHEMERIS_TYPE = 0
CLASSIFICATION_TYPE = U
NORAD_CAT_ID   = 28222
ELEMENT_SET_NO = 999
REV_AT_EPOCH   = 20795
BSTAR          = .68493744E-3
MEAN_MOTION_DOT = .74917E-3
MEAN_MOTION_DDOT = 0

CCSDS_OMM_VERS = 2.0
CREATION_DATE  = 
ORIGINATOR     = 

OBJECT_NAME    = SL-16 R/B
OBJECT_ID      = 2004-021B
CENTER_NAME    = EARTH
REF_FRAME      = TEME
TIME_SYSTEM    = UTC
MEAN_ELEMENT_THEORY = SGP/SGP4

EPOCH          = 2026-04-02T06:53:32.833248
MEAN_MOTION    = 14.14598090
ECCENTRICITY   = .00052535
INCLINATION    = 71.0011
RA_OF_ASC_NODE = 182.9728
ARG_OF_PERICENTER = 340.3747
MEAN_ANOMALY   = 19.7172

EPHEMERIS_TYPE = 0
CLASSIFICATION_TYPE = U
NORAD_CAT_ID   = 28353
ELEMENT_SET_NO = 999
REV_AT_EPOCH   = 12617
BSTAR          = .21561175E-3
MEAN_MOTION_DOT = .367E-5
MEAN_MOTION_DDOT = 0

CCSDS_OMM_VERS = 2.0
CREATION_DATE  = 
ORIGINATOR     = 

OBJECT_NAME    = CZ-4B R/B
OBJECT_ID      = 2004-035C
CENTER_NAME    = EARTH
REF_FRAME      = TEME
TIME_SYSTEM    = UTC
MEAN_ELEMENT_THEORY = SGP/SGP4

EPOCH          = 2026-04-02T08:01:11.782560
MEAN_MOTION    = 15.29486524
ECCENTRICITY   = .00301895
INCLINATION    = 97.3455
RA_OF_ASC_NODE = 126.2948
ARG_OF_PERICENTER = 242.9987
MEAN_ANOMALY   = 116.8171

EPHEMERIS_TYPE = 0
CLASSIFICATION_TYPE = U
NORAD_CAT_ID   = 28415
ELEMENT_SET_NO = 999
REV_AT_EPOCH   = 18352
BSTAR          = .39051821E-3
MEAN_MOTION_DOT = .11245E-3
MEAN_MOTION_DDOT = 0

CCSDS_OMM_VERS = 2.0
CREATION_DATE  = 
ORIGINATOR     = 

OBJECT_NAME    = CZ-2C R/B
OBJECT_ID      = 2004-046B
CENTER_NAME    = EARTH
REF_FRAME      = TEME
TIME_SYSTEM    = UTC
MEAN_ELEMENT_THEORY = SGP/SGP4

EPOCH          = 2026-04-02T07:49:04.658304
MEAN_MOTION    = 14.27001228
ECCENTRICITY   = .01406396
INCLINATION    = 98.1977
RA_OF_ASC_NODE = 5.8370
ARG_OF_PERICENTER = 85.0199
MEAN_ANOMALY   = 276.7021

EPHEMERIS_TYPE = 0
CLASSIFICATION_TYPE = U
NORAD_CAT_ID   = 28480
ELEMENT_SET_NO = 999
REV_AT_EPOCH   = 11187
BSTAR          = .10385425E-3
MEAN_MOTION_DOT = .241E-5
MEAN_MOTION_DDOT = 0

CCSDS_OMM_VERS = 2.0
CREATION_DATE  = 
ORIGINATOR     = 

OBJECT_NAME    = ARIANE 5 R/B
OBJECT_ID      = 2004-049H
CENTER_NAME    = EARTH
REF_FRAME      = TEME
TIME_SYSTEM    = UTC
MEAN_ELEMENT_THEORY = SGP/SGP4

EPOCH          = 2026-04-02T05:04:13.524096
MEAN_MOTION    = 14.85311686
ECCENTRICITY   = .00828334
INCLINATION    = 98.2660
RA_OF_ASC_NODE = 261.5547
ARG_OF_PERICENTER = 274.9307
MEAN_ANOMALY   = 84.2454

EPHEMERIS_TYPE = 0
CLASSIFICATION_TYPE = U
NORAD_CAT_ID   = 28499
ELEMENT_SET_NO = 999
REV_AT_EPOCH   = 14928
BSTAR          = .14803753E-3
MEAN_MOTION_DOT = .1286E-4
MEAN_MOTION_DDOT = 0

CCSDS_OMM_VERS = 2.0
CREATION_DATE  = 
ORIGINATOR     = 

OBJECT_NAME    = CZ-2D R/B
OBJECT_ID      = 2005-024B
CENTER_NAME    = EARTH
REF_FRAME      = TEME
TIME_SYSTEM    = UTC
MEAN_ELEMENT_THEORY = SGP/SGP4

EPOCH          = 2026-04-02T07:06:34.741152
MEAN_MOTION    = 15.62381263
ECCENTRICITY   = .00018227
INCLINATION    = 97.3564
RA_OF_ASC_NODE = 108.3444
ARG_OF_PERICENTER = 300.0803
MEAN_ANOMALY   = 60.0274

EPHEMERIS_TYPE = 0
CLASSIFICATION_TYPE = U
NORAD_CAT_ID   = 28738
ELEMENT_SET_NO = 999
REV_AT_EPOCH   = 14346
BSTAR          = .71388408E-3
MEAN_MOTION_DOT = .63445E-3
MEAN_MOTION_DDOT = 0

CCSDS_OMM_VERS = 2.0
CREATION_DATE  = 
ORIGINATOR     = 

OBJECT_NAME    = ALOS (DAICHI)
OBJECT_ID      = 2006-002A
CENTER_NAME    = EARTH
REF_FRAME      = TEME
TIME_SYSTEM    = UTC
MEAN_ELEMENT_THEORY = SGP/SGP4

EPOCH          = 2026-04-02T07:54:06.279840
MEAN_MOTION    = 14.69885671
ECCENTRICITY   = .00010129
INCLINATION    = 98.1256
RA_OF_ASC_NODE = 48.1732
ARG_OF_PERICENTER = 113.1286
MEAN_ANOMALY   = 247.0026

EPHEMERIS_TYPE = 0
CLASSIFICATION_TYPE = U
NORAD_CAT_ID   = 28931
ELEMENT_SET_NO = 999
REV_AT_EPOCH   = 7695
BSTAR          = .34334437E-3
MEAN_MOTION_DOT = .2004E-4
MEAN_MOTION_DDOT = 0

